{
  "norad_id": 65738,
  "name": "STARLINK-35108",
  "history": [
    {
      "epoch": "2026-03-28T16:55:54.729984Z",
      "apogee_km": 475.9601058169992,
      "perigee_km": 474.39480879495113,
      "latitude_deg": 4.4162923962160895e-06,
      "longitude_deg": 164.56315867111107,
      "height_km": 475.78228098829277,
      "semi_major_axis_km": 6853.314457305974,
      "eccentricity": 0.0001142,
      "inclination_deg": 53.1575,
      "raan_deg": 244.6633,
      "arg_perigee_deg": 67.9926,
      "mean_anomaly_deg": 292.1196,
      "mean_motion_rev_day": 15.30212597
    },
    {
      "epoch": "2026-03-29T03:54:16.213824Z",
      "apogee_km": 475.8697969145114,
      "perigee_km": 474.30342412609116,
      "latitude_deg": -1.0209179708402722e-05,
      "longitude_deg": -2.601698340754209,
      "height_km": 475.7076667987177,
      "semi_major_axis_km": 6853.223610520301,
      "eccentricity": 0.00011428,
      "inclination_deg": 53.1582,
      "raan_deg": 242.5386,
      "arg_perigee_deg": 69.2777,
      "mean_anomaly_deg": 290.8346,
      "mean_motion_rev_day": 15.30243024
    },
    {
      "epoch": "2026-03-30T09:41:16.194624Z",
      "apogee_km": 476.0016958852393,
      "perigee_km": 474.35265142877324,
      "latitude_deg": -4.7101357394813216e-05,
      "longitude_deg": -96.33990275384946,
      "height_km": 475.9778033080481,
      "semi_major_axis_km": 6853.314173657006,
      "eccentricity": 0.00012031,
      "inclination_deg": 53.1589,
      "raan_deg": 236.7735,
      "arg_perigee_deg": 83.2128,
      "mean_anomaly_deg": 276.9009,
      "mean_motion_rev_day": 15.30212692
    },
    {
      "epoch": "2026-03-30T19:05:35.551968Z",
      "apogee_km": 475.9156670499415,
      "perigee_km": 474.55362796871486,
      "latitude_deg": -2.5974125590603488e-05,
      "longitude_deg": 120.37419273130202,
      "height_km": 475.8651171945334,
      "semi_major_axis_km": 6853.371647509328,
      "eccentricity": 9.937e-05,
      "inclination_deg": 53.1598,
      "raan_deg": 234.9545,
      "arg_perigee_deg": 66.8194,
      "mean_anomaly_deg": 293.2911,
      "mean_motion_rev_day": 15.30193443
    }
  ]
}